{
  "type": "FeatureCollection",
  "features": [
    {
      "type": "Feature",
      "properties": {
        "norad_id": 31383,
        "name": "FENGYUN 1C DEB",
        "group": "fengyun-1c-debris",
        "lat": -26.6367516444053,
        "lon": -146.2143510352777,
        "alt_km": 939.061722350938,
        "timestamp": "2025-12-02T10:50:47.556217+00:00",
        "meta_object_name": "FENGYUN 1C DEB",
        "meta_object_id": "1999-025BSP",
        "meta_epoch": "2025-11-30T15:52:15.780864",
        "meta_mean_motion": 14.05658237,
        "meta_eccentricity": 0.01079896,
        "meta_inclination": 99.0689,
        "meta_ra_of_asc_node": 36.5888,
        "meta_arg_of_pericenter": 351.3472,
        "meta_mean_anomaly": 159.9983,
        "meta_ephemeris_type": 0,
        "meta_classification_type": "U",
        "meta_norad_cat_id": 31383,
        "meta_element_set_no": 999,
        "meta_rev_at_epoch": 95199,
        "meta_bstar": 0.0006307032,
        "meta_mean_motion_dot": 1.037e-05,
        "meta_mean_motion_ddot": 0,
        "tle_line1": "1 31383U 99025BSP 25334.66129376  .00001037  00000+0  63070-3 0  9999",
        "tle_line2": "2 31383  99.0689  36.5888 0107989 351.3472 159.9983 14.05658237951996"
      },
      "geometry": {
        "type": "Point",
        "coordinates": [
          -146.2143510352777,
          -26.6367516444053
        ]
      }
    },
    {
      "type": "Feature",
      "properties": {
        "norad_id": 31384,
        "name": "FENGYUN 1C DEB",
        "group": "fengyun-1c-debris",
        "lat": -81.5385363619346,
        "lon": 33.52468295885228,
        "alt_km": 1251.4283842874356,
        "timestamp": "2025-12-02T10:50:47.556227+00:00",
        "meta_object_name": "FENGYUN 1C DEB",
        "meta_object_id": "1999-025BSQ",
        "meta_epoch": "2025-11-30T21:25:39.153792",
        "meta_mean_motion": 13.85935935,
        "meta_eccentricity": 0.04406256,
        "meta_inclination": 98.4563,
        "meta_ra_of_asc_node": 302.0658,
        "meta_arg_of_pericenter": 74.1899,
        "meta_mean_anomaly": 342.7882,
        "meta_ephemeris_type": 0,
        "meta_classification_type": "U",
        "meta_norad_cat_id": 31384,
        "meta_element_set_no": 999,
        "meta_rev_at_epoch": 92860,
        "meta_bstar": 0.0021210825,
        "meta_mean_motion_dot": 5.211e-05,
        "meta_mean_motion_ddot": 0,
        "tle_line1": "1 31384U 99025BSQ 25334.89281428  .00005211  00000+0  21211-2 0  9990",
        "tle_line2": "2 31384  98.4563 302.0658 0440625  74.1899 342.7882 13.85935935928609"
      },
      "geometry": {
        "type": "Point",
        "coordinates": [
          33.52468295885228,
          -81.5385363619346
        ]
      }
    },
    {
      "type": "Feature",
      "properties": {
        "norad_id": 31385,
        "name": "FENGYUN 1C DEB",
        "group": "fengyun-1c-debris",
        "lat": 77.05187279289457,
        "lon": 22.767346325733552,
        "alt_km": 642.3927364593383,
        "timestamp": "2025-12-02T10:50:47.556245+00:00",
        "meta_object_name": "FENGYUN 1C DEB",
        "meta_object_id": "1999-025BSR",
        "meta_epoch": "2025-12-01T00:22:37.155648",
        "meta_mean_motion": 14.43974622,
        "meta_eccentricity": 0.01349077,
        "meta_inclination": 98.9546,
        "meta_ra_of_asc_node": 64.5546,
        "meta_arg_of_pericenter": 90.2451,
        "meta_mean_anomaly": 88.8217,
        "meta_ephemeris_type": 0,
        "meta_classification_type": "U",
        "meta_norad_cat_id": 31385,
        "meta_element_set_no": 999,
        "meta_rev_at_epoch": 98445,
        "meta_bstar": 0.00018371815,
        "meta_mean_motion_dot": 6.48e-06,
        "meta_mean_motion_ddot": 0,
        "tle_line1": "1 31385U 99025BSR 25335.01570782  .00000648  00000+0  18372-3 0  9994",
        "tle_line2": "2 31385  98.9546  64.5546 0134907  90.2451  88.8217 14.43974622984454"
      },
      "geometry": {
        "type": "Point",
        "coordinates": [
          22.767346325733552,
          77.05187279289457
        ]
      }
    },
    {
      "type": "Feature",
      "properties": {
        "norad_id": 31386,
        "name": "FENGYUN 1C DEB",
        "group": "fengyun-1c-debris",
        "lat": 58.0773192525476,
        "lon": -173.85432291394133,
        "alt_km": 1078.779056060116,
        "timestamp": "2025-12-02T10:50:47.556255+00:00",
        "meta_object_name": "FENGYUN 1C DEB",
        "meta_object_id": "1999-025BSS",
        "meta_epoch": "2025-11-30T23:36:27.682272",
        "meta_mean_motion": 13.85933209,
        "meta_eccentricity": 0.01976819,
        "meta_inclination": 98.4408,
        "meta_ra_of_asc_node": 351.0324,
        "meta_arg_of_pericenter": 316.7324,
        "meta_mean_anomaly": 41.8452,
        "meta_ephemeris_type": 0,
        "meta_classification_type": "U",
        "meta_norad_cat_id": 31386,
        "meta_element_set_no": 999,
        "meta_rev_at_epoch": 93699,
        "meta_bstar": 0.0021212341,
        "meta_mean_motion_dot": 2.802e-05,
        "meta_mean_motion_ddot": 0,
        "tle_line1": "1 31386U 99025BSS 25334.98365373  .00002802  00000+0  21212-2 0  9998",
        "tle_line2": "2 31386  98.4408 351.0324 0197681 316.7324  41.8452 13.85933209936995"
      },
      "geometry": {
        "type": "Point",
        "coordinates": [
          -173.85432291394133,
          58.0773192525476
        ]
      }
    },
    {
      "type": "Feature",
      "properties": {
        "norad_id": 31387,
        "name": "FENGYUN 1C DEB",
        "group": "fengyun-1c-debris",
        "lat": 2.194799246630737,
        "lon": 34.99878070157677,
        "alt_km": 688.2295555492419,
        "timestamp": "2025-12-02T10:50:47.556265+00:00",
        "meta_object_name": "FENGYUN 1C DEB",
        "meta_object_id": "1999-025BST",
        "meta_epoch": "2025-12-02T03:12:14.005152",
        "meta_mean_motion": 14.13550702,
        "meta_eccentricity": 0.0241296,
        "meta_inclination": 99.1686,
        "meta_ra_of_asc_node": 214.3175,
        "meta_arg_of_pericenter": 201.1346,
        "meta_mean_anomaly": 157.9723,
        "meta_ephemeris_type": 0,
        "meta_classification_type": "U",
        "meta_norad_cat_id": 31387,
        "meta_element_set_no": 999,
        "meta_rev_at_epoch": 96147,
        "meta_bstar": 0.00026927,
        "meta_mean_motion_dot": 6.2e-06,
        "meta_mean_motion_ddot": 0,
        "tle_line1": "1 31387U 99025BST 25336.13349543  .00000620  00000+0  26927-3 0  9994",
        "tle_line2": "2 31387  99.1686 214.3175 0241296 201.1346 157.9723 14.13550702961476"
      },
      "geometry": {
        "type": "Point",
        "coordinates": [
          34.99878070157677,
          2.194799246630737
        ]
      }
    },
    {
      "type": "Feature",
      "properties": {
        "norad_id": 31388,
        "name": "FENGYUN 1C DEB",
        "group": "fengyun-1c-debris",
        "lat": -80.64504976981291,
        "lon": 74.50055999393942,
        "alt_km": 848.6111102140376,
        "timestamp": "2025-12-02T10:50:47.556277+00:00",
        "meta_object_name": "FENGYUN 1C DEB",
        "meta_object_id": "1999-025BSU",
        "meta_epoch": "2025-12-02T04:44:39.152832",
        "meta_mean_motion": 14.07418192,
        "meta_eccentricity": 0.0046128,
        "meta_inclination": 98.8042,
        "meta_ra_of_asc_node": 324.4312,
        "meta_arg_of_pericenter": 231.0609,
        "meta_mean_anomaly": 187.8936,
        "meta_ephemeris_type": 0,
        "meta_classification_type": "U",
        "meta_norad_cat_id": 31388,
        "meta_element_set_no": 999,
        "meta_rev_at_epoch": 96293,
        "meta_bstar": 0.00027975,
        "meta_mean_motion_dot": 4.32e-06,
        "meta_mean_motion_ddot": 0,
        "tle_line1": "1 31388U 99025BSU 25336.19767538  .00000432  00000+0  27975-3 0  9994",
        "tle_line2": "2 31388  98.8042 324.4312 0046128 231.0609 187.8936 14.07418192962935"
      },
      "geometry": {
        "type": "Point",
        "coordinates": [
          74.50055999393942,
          -80.64504976981291
        ]
      }
    },
    {
      "type": "Feature",
      "properties": {
        "norad_id": 31389,
        "name": "FENGYUN 1C DEB",
        "group": "fengyun-1c-debris",
        "lat": 25.517674937865994,
        "lon": 136.54611731658417,
        "alt_km": 712.8666504690891,
        "timestamp": "2025-12-02T10:50:47.556287+00:00",
        "meta_object_name": "FENGYUN 1C DEB",
        "meta_object_id": "1999-025BSV",
        "meta_epoch": "2025-12-01T10:18:37.694016",
        "meta_mean_motion": 14.60124767,
        "meta_eccentricity": 0.00307094,
        "meta_inclination": 99.0434,
        "meta_ra_of_asc_node": 139.7919,
        "meta_arg_of_pericenter": 222.1162,
        "meta_mean_anomaly": 192.9041,
        "meta_ephemeris_type": 0,
        "meta_classification_type": "U",
        "meta_norad_cat_id": 31389,
        "meta_element_set_no": 999,
        "meta_rev_at_epoch": 96332,
        "meta_bstar": 0.0064623005,
        "meta_mean_motion_dot": 0.00031386,
        "meta_mean_motion_ddot": 0,
        "tle_line1": "1 31389U 99025BSV 25335.42960294  .00031386  00000+0  64623-2 0  9996",
        "tle_line2": "2 31389  99.0434 139.7919 0030709 222.1162 192.9041 14.60124767963326"
      },
      "geometry": {
        "type": "Point",
        "coordinates": [
          136.54611731658417,
          25.517674937865994
        ]
      }
    }
  ]
}